[{"OBJECT_NAME":"JY1SAT (JO-97)","OBJECT_ID":"2018-099AX","EPOCH":"2026-03-09T16:28:19.890048","MEAN_MOTION":15.30302629,"ECCENTRICITY":0.00047232,"INCLINATION":97.4249,"RA_OF_ASC_NODE":131.3625,"ARG_OF_PERICENTER":256.6795,"MEAN_ANOMALY":103.3919,"EPHEMERIS_TYPE":0,"CLASSIFICATION_TYPE":"U","NORAD_CAT_ID":43803,"ELEMENT_SET_NO":999,"REV_AT_EPOCH":39839,"BSTAR":0.00060804308,"MEAN_MOTION_DOT":0.00017774,"MEAN_MOTION_DDOT":0},{"OBJECT_NAME":"STARLINK-2245","OBJECT_ID":"2021-041AN","EPOCH":"2026-03-09T10:13:59.683008","MEAN_MOTION":15.30209458,"ECCENTRICITY":0.00013484,"INCLINATION":53.161,"RA_OF_ASC_NODE":127.9568,"ARG_OF_PERICENTER":87.2561,"MEAN_ANOMALY":272.8594,"EPHEMERIS_TYPE":0,"CLASSIFICATION_TYPE":"U","NORAD_CAT_ID":48589,"ELEMENT_SET_NO":999,"REV_AT_EPOCH":26523,"BSTAR":6.5781708e-5,"MEAN_MOTION_DOT":1.59e-5,"MEAN_MOTION_DDOT":0}]
