JY1SAT (JO-97)          
1 43803U 18099AX  26068.68634132  .00017774  00000+0  60804-3 0  9996
2 43803  97.4249 131.3625 0004723 256.6795 103.3919 15.30302628398390
STARLINK-2245           
1 48589U 21041AN  26068.42638522  .00001590  00000+0  65782-4 0  9992
2 48589  53.1610 127.9568 0001348  87.2561 272.8594 15.30209458265237
